[
{
"CCSDS_OMM_VERS": "2.0",
"COMMENT": "GENERATED VIA SPACE-TRACK.ORG API",
"CREATION_DATE": "2025-03-19T14:36:17",
"ORIGINATOR": "18 SPCS",
"OBJECT_NAME": "BEIDOU 3M8",
"OBJECT_ID": "2018-029B",
"CENTER_NAME": "EARTH",
"REF_FRAME": "TEME",
"TIME_SYSTEM": "UTC",
"MEAN_ELEMENT_THEORY": "SGP4",
"EPOCH": "2025-03-19T01:55:11.231040",
"MEAN_MOTION": "1.86229447",
"ECCENTRICITY": "0.00050360",
"INCLINATION": "54.5952",
"RA_OF_ASC_NODE": "315.8436",
"ARG_OF_PERICENTER": "17.5799",
"MEAN_ANOMALY": "342.4876",
"EPHEMERIS_TYPE": "0",
"CLASSIFICATION_TYPE": "U",
"NORAD_CAT_ID": "43246",
"ELEMENT_SET_NO": "999",
"REV_AT_EPOCH": "4741",
"BSTAR": "0.00000000000000",
"MEAN_MOTION_DOT": "-0.00000060",
"MEAN_MOTION_DDOT": "0.0000000000000",
"SEMIMAJOR_AXIS": "27906.344",
"PERIOD": "773.240",
"APOAPSIS": "21542.262",
"PERIAPSIS": "21514.155",
"OBJECT_TYPE": "PAYLOAD",
"RCS_SIZE": "LARGE",
"COUNTRY_CODE": "PRC",
"LAUNCH_DATE": "2018-03-29",
"SITE": "XSC",
"DECAY_DATE": null,
"FILE": "4673888",
"GP_ID": "283479365",
"TLE_LINE0": "0 BEIDOU 3M8",
"TLE_LINE1": "1 43246U 18029B   25078.07999110 -.00000060  00000-0  00000+0 0  9993",
"TLE_LINE2": "2 43246  54.5952 315.8436 0005036  17.5799 342.4876  1.86229447 47416"
},
{
"CCSDS_OMM_VERS": "2.0",
"COMMENT": "GENERATED VIA SPACE-TRACK.ORG API",
"CREATION_DATE": "2025-03-19T14:56:26",
"ORIGINATOR": "18 SPCS",
"OBJECT_NAME": "BEIDOU 3M3",
"OBJECT_ID": "2018-003A",
"CENTER_NAME": "EARTH",
"REF_FRAME": "TEME",
"TIME_SYSTEM": "UTC",
"MEAN_ELEMENT_THEORY": "SGP4",
"EPOCH": "2025-03-19T00:24:19.361664",
"MEAN_MOTION": "1.86232515",
"ECCENTRICITY": "0.00047550",
"INCLINATION": "54.7227",
"RA_OF_ASC_NODE": "318.1380",
"ARG_OF_PERICENTER": "64.6688",
"MEAN_ANOMALY": "295.4310",
"EPHEMERIS_TYPE": "0",
"CLASSIFICATION_TYPE": "U",
"NORAD_CAT_ID": "43107",
"ELEMENT_SET_NO": "999",
"REV_AT_EPOCH": "4888",
"BSTAR": "0.00000000000000",
"MEAN_MOTION_DOT": "-0.00000065",
"MEAN_MOTION_DDOT": "0.0000000000000",
"SEMIMAJOR_AXIS": "27906.037",
"PERIOD": "773.227",
"APOAPSIS": "21541.172",
"PERIAPSIS": "21514.633",
"OBJECT_TYPE": "PAYLOAD",
"RCS_SIZE": "LARGE",
"COUNTRY_CODE": "PRC",
"LAUNCH_DATE": "2018-01-11",
"SITE": "XSC",
"DECAY_DATE": null,
"FILE": "4674044",
"GP_ID": "283482172",
"TLE_LINE0": "0 BEIDOU 3M3",
"TLE_LINE1": "1 43107U 18003A   25078.01689076 -.00000065  00000-0  00000+0 0  9997",
"TLE_LINE2": "2 43107  54.7227 318.1380 0004755  64.6688 295.4310  1.86232515 48882"
},
{
"CCSDS_OMM_VERS": "2.0",
"COMMENT": "GENERATED VIA SPACE-TRACK.ORG API",
"CREATION_DATE": "2025-03-19T17:43:14",
"ORIGINATOR": "18 SPCS",
"OBJECT_NAME": "BEIDOU 3M17",
"OBJECT_ID": "2018-093A",
"CENTER_NAME": "EARTH",
"REF_FRAME": "TEME",
"TIME_SYSTEM": "UTC",
"MEAN_ELEMENT_THEORY": "SGP4",
"EPOCH": "2025-03-18T23:18:02.950272",
"MEAN_MOTION": "1.86228483",
"ECCENTRICITY": "0.00072670",
"INCLINATION": "54.1899",
"RA_OF_ASC_NODE": "197.7403",
"ARG_OF_PERICENTER": "289.4826",
"MEAN_ANOMALY": "70.4262",
"EPHEMERIS_TYPE": "0",
"CLASSIFICATION_TYPE": "U",
"NORAD_CAT_ID": "43706",
"ELEMENT_SET_NO": "999",
"REV_AT_EPOCH": "4306",
"BSTAR": "0.00000000000000",
"MEAN_MOTION_DOT": "0.00000024",
"MEAN_MOTION_DDOT": "0.0000000000000",
"SEMIMAJOR_AXIS": "27906.440",
"PERIOD": "773.244",
"APOAPSIS": "21548.585",
"PERIAPSIS": "21508.025",
"OBJECT_TYPE": "PAYLOAD",
"RCS_SIZE": "LARGE",
"COUNTRY_CODE": "PRC",
"LAUNCH_DATE": "2018-11-18",
"SITE": "XSC",
"DECAY_DATE": null,
"FILE": "4674121",
"GP_ID": "283501200",
"TLE_LINE0": "0 BEIDOU 3M17",
"TLE_LINE1": "1 43706U 18093A   25077.97086748  .00000024  00000-0  00000-0 0  9997",
"TLE_LINE2": "2 43706  54.1899 197.7403 0007267 289.4826  70.4262  1.86228483 43066"
},
{
"CCSDS_OMM_VERS": "2.0",
"COMMENT": "GENERATED VIA SPACE-TRACK.ORG API",
"CREATION_DATE": "2025-03-18T15:06:32",
"ORIGINATOR": "18 SPCS",
"OBJECT_NAME": "BEIDOU 3M24",
"OBJECT_ID": "2019-061B",
"CENTER_NAME": "EARTH",
"REF_FRAME": "TEME",
"TIME_SYSTEM": "UTC",
"MEAN_ELEMENT_THEORY": "SGP4",
"EPOCH": "2025-03-18T12:10:06.326688",
"MEAN_MOTION": "1.86229362",
"ECCENTRICITY": "0.00045950",
"INCLINATION": "54.4163",
"RA_OF_ASC_NODE": "198.0652",
"ARG_OF_PERICENTER": "3.2020",
"MEAN_ANOMALY": "2.9747",
"EPHEMERIS_TYPE": "0",
"CLASSIFICATION_TYPE": "U",
"NORAD_CAT_ID": "44543",
"ELEMENT_SET_NO": "999",
"REV_AT_EPOCH": "3730",
"BSTAR": "0.00000000000000",
"MEAN_MOTION_DOT": "0.00000024",
"MEAN_MOTION_DDOT": "0.0000000000000",
"SEMIMAJOR_AXIS": "27906.352",
"PERIOD": "773.240",
"APOAPSIS": "21541.040",
"PERIAPSIS": "21515.394",
"OBJECT_TYPE": "PAYLOAD",
"RCS_SIZE": "LARGE",
"COUNTRY_CODE": "PRC",
"LAUNCH_DATE": "2019-09-22",
"SITE": "XSC",
"DECAY_DATE": null,
"FILE": "4673052",
"GP_ID": "283400053",
"TLE_LINE0": "0 BEIDOU 3M24",
"TLE_LINE1": "1 44543U 19061B   25077.50701767  .00000024  00000-0  00000+0 0  9996",
"TLE_LINE2": "2 44543  54.4163 198.0652 0004595   3.2020   2.9747  1.86229362 37307"
},
{
"CCSDS_OMM_VERS": "2.0",
"COMMENT": "GENERATED VIA SPACE-TRACK.ORG API",
"CREATION_DATE": "2025-03-19T02:27:03",
"ORIGINATOR": "18 SPCS",
"OBJECT_NAME": "BEIDOU 3M6",
"OBJECT_ID": "2018-018B",
"CENTER_NAME": "EARTH",
"REF_FRAME": "TEME",
"TIME_SYSTEM": "UTC",
"MEAN_ELEMENT_THEORY": "SGP4",
"EPOCH": "2025-03-18T09:26:17.658816",
"MEAN_MOTION": "1.86231474",
"ECCENTRICITY": "0.00100870",
"INCLINATION": "56.2511",
"RA_OF_ASC_NODE": "78.2278",
"ARG_OF_PERICENTER": "314.1055",
"MEAN_ANOMALY": "45.8289",
"EPHEMERIS_TYPE": "0",
"CLASSIFICATION_TYPE": "U",
"NORAD_CAT_ID": "43208",
"ELEMENT_SET_NO": "999",
"REV_AT_EPOCH": "4825",
"BSTAR": "0.00000000000000",
"MEAN_MOTION_DOT": "-0.00000004",
"MEAN_MOTION_DDOT": "0.0000000000000",
"SEMIMAJOR_AXIS": "27906.141",
"PERIOD": "773.231",
"APOAPSIS": "21556.155",
"PERIAPSIS": "21499.857",
"OBJECT_TYPE": "PAYLOAD",
"RCS_SIZE": "LARGE",
"COUNTRY_CODE": "PRC",
"LAUNCH_DATE": "2018-02-12",
"SITE": "XSC",
"DECAY_DATE": null,
"FILE": "4673449",
"GP_ID": "283454660",
"TLE_LINE0": "0 BEIDOU 3M6",
"TLE_LINE1": "1 43208U 18018B   25077.39325994 -.00000004  00000-0  00000-0 0  9995",
"TLE_LINE2": "2 43208  56.2511  78.2278 0010087 314.1055  45.8289  1.86231474 48259"
},
{
"CCSDS_OMM_VERS": "2.0",
"COMMENT": "GENERATED VIA SPACE-TRACK.ORG API",
"CREATION_DATE": "2025-03-18T19:01:07",
"ORIGINATOR": "18 SPCS",
"OBJECT_NAME": "BEIDOU IGSO-6",
"OBJECT_ID": "2016-021A",
"CENTER_NAME": "EARTH",
"REF_FRAME": "TEME",
"TIME_SYSTEM": "UTC",
"MEAN_ELEMENT_THEORY": "SGP4",
"EPOCH": "2025-03-18T08:44:42.501120",
"MEAN_MOTION": "1.00262152",
"ECCENTRICITY": "0.00535770",
"INCLINATION": "59.5854",
"RA_OF_ASC_NODE": "42.5872",
"ARG_OF_PERICENTER": "230.3160",
"MEAN_ANOMALY": "129.4043",
"EPHEMERIS_TYPE": "0",
"CLASSIFICATION_TYPE": "U",
"NORAD_CAT_ID": "41434",
"ELEMENT_SET_NO": "999",
"REV_AT_EPOCH": "3291",
"BSTAR": "0.00000000000000",
"MEAN_MOTION_DOT": "-0.00000140",
"MEAN_MOTION_DDOT": "0.0000000000000",
"SEMIMAJOR_AXIS": "42167.433",
"PERIOD": "1436.235",
"APOAPSIS": "36015.218",
"PERIAPSIS": "35563.377",
"OBJECT_TYPE": "PAYLOAD",
"RCS_SIZE": "LARGE",
"COUNTRY_CODE": "PRC",
"LAUNCH_DATE": "2016-03-29",
"SITE": "XSC",
"DECAY_DATE": null,
"FILE": "4673118",
"GP_ID": "283417193",
"TLE_LINE0": "0 BEIDOU IGSO-6",
"TLE_LINE1": "1 41434U 16021A   25077.36438080 -.00000140  00000-0  00000-0 0  9995",
"TLE_LINE2": "2 41434  59.5854  42.5872 0053577 230.3160 129.4043  1.00262152 32911"
},
{
"CCSDS_OMM_VERS": "2.0",
"COMMENT": "GENERATED VIA SPACE-TRACK.ORG API",
"CREATION_DATE": "2025-03-18T19:01:07",
"ORIGINATOR": "18 SPCS",
"OBJECT_NAME": "BEIDOU 3M5",
"OBJECT_ID": "2018-018A",
"CENTER_NAME": "EARTH",
"REF_FRAME": "TEME",
"TIME_SYSTEM": "UTC",
"MEAN_ELEMENT_THEORY": "SGP4",
"EPOCH": "2025-03-18T07:50:29.961024",
"MEAN_MOTION": "1.86231404",
"ECCENTRICITY": "0.00070020",
"INCLINATION": "56.2516",
"RA_OF_ASC_NODE": "78.2259",
"ARG_OF_PERICENTER": "343.0386",
"MEAN_ANOMALY": "16.9555",
"EPHEMERIS_TYPE": "0",
"CLASSIFICATION_TYPE": "U",
"NORAD_CAT_ID": "43207",
"ELEMENT_SET_NO": "999",
"REV_AT_EPOCH": "4825",
"BSTAR": "0.00000000000000",
"MEAN_MOTION_DOT": "-0.00000004",
"MEAN_MOTION_DDOT": "0.0000000000000",
"SEMIMAJOR_AXIS": "27906.148",
"PERIOD": "773.232",
"APOAPSIS": "21547.553",
"PERIAPSIS": "21508.473",
"OBJECT_TYPE": "PAYLOAD",
"RCS_SIZE": "LARGE",
"COUNTRY_CODE": "PRC",
"LAUNCH_DATE": "2018-02-12",
"SITE": "XSC",
"DECAY_DATE": null,
"FILE": "4673118",
"GP_ID": "283418211",
"TLE_LINE0": "0 BEIDOU 3M5",
"TLE_LINE1": "1 43207U 18018A   25077.32673566 -.00000004  00000-0  00000-0 0  9998",
"TLE_LINE2": "2 43207  56.2516  78.2259 0007002 343.0386  16.9555  1.86231404 48251"
},
{
"CCSDS_OMM_VERS": "2.0",
"COMMENT": "GENERATED VIA SPACE-TRACK.ORG API",
"CREATION_DATE": "2025-03-18T19:01:07",
"ORIGINATOR": "18 SPCS",
"OBJECT_NAME": "BEIDOU 3M21",
"OBJECT_ID": "2019-078A",
"CENTER_NAME": "EARTH",
"REF_FRAME": "TEME",
"TIME_SYSTEM": "UTC",
"MEAN_ELEMENT_THEORY": "SGP4",
"EPOCH": "2025-03-18T05:03:47.614464",
"MEAN_MOTION": "1.86232176",
"ECCENTRICITY": "0.00072080",
"INCLINATION": "54.3419",
"RA_OF_ASC_NODE": "315.8208",
"ARG_OF_PERICENTER": "29.9326",
"MEAN_ANOMALY": "330.1595",
"EPHEMERIS_TYPE": "0",
"CLASSIFICATION_TYPE": "U",
"NORAD_CAT_ID": "44793",
"ELEMENT_SET_NO": "999",
"REV_AT_EPOCH": "3615",
"BSTAR": "0.00000000000000",
"MEAN_MOTION_DOT": "-0.00000065",
"MEAN_MOTION_DDOT": "0.0000000000000",
"SEMIMAJOR_AXIS": "27906.071",
"PERIOD": "773.228",
"APOAPSIS": "21548.051",
"PERIAPSIS": "21507.821",
"OBJECT_TYPE": "PAYLOAD",
"RCS_SIZE": "LARGE",
"COUNTRY_CODE": "PRC",
"LAUNCH_DATE": "2019-11-23",
"SITE": "XSC",
"DECAY_DATE": null,
"FILE": "4673118",
"GP_ID": "283419117",
"TLE_LINE0": "0 BEIDOU 3M21",
"TLE_LINE1": "1 44793U 19078A   25077.21096776 -.00000065  00000-0  00000-0 0  9993",
"TLE_LINE2": "2 44793  54.3419 315.8208 0007208  29.9326 330.1595  1.86232176 36157"
}
]
